G21 ; Units: mm
G90 ; Absolute positioning
G1 F600
G1 X1.000 Y3.062 Z3.243 U1.000 F600 ; Lead-in
G1 X1.046 Y2.744 Z3.229 U1.020 F600
G1 X1.093 Y2.657 Z3.226 U1.041 F600
G1 X1.186 Y2.530 Z3.220 U1.081 F600
G1 X1.371 Y2.345 Z3.213 U1.163 F600
G1 X1.742 Y2.088 Z3.202 U1.325 F600
G1 X2.113 Y1.905 Z3.194 U1.488 F600
G1 X2.856 Y1.680 Z3.184 U1.814 F600
G1 X3.784 Y1.521 Z3.178 U2.221 F600
G1 X4.712 Y1.391 Z3.172 U2.627 F600
G1 X5.639 Y1.287 Z3.168 U3.034 F600
G1 X6.567 Y1.213 Z3.165 U3.441 F600
G1 X8.423 Y1.122 Z3.161 U4.255 F600
G1 X10.279 Y1.060 Z3.158 U5.068 F600
G1 X12.135 Y1.020 Z3.157 U5.882 F600
G1 X13.991 Y1.001 Z3.156 U6.696 F600
G1 X15.846 Y1.000 Z3.156 U7.509 F600
G1 X17.702 Y1.014 Z3.156 U8.323 F600
G1 X19.558 Y1.040 Z3.157 U9.137 F600
G1 X21.414 Y1.076 Z3.159 U9.951 F600
G1 X23.269 Y1.118 Z3.161 U10.764 F600
G1 X25.125 Y1.166 Z3.163 U11.578 F600
G1 X26.981 Y1.217 Z3.165 U12.392 F600
G1 X28.837 Y1.269 Z3.167 U13.205 F600
G1 X30.693 Y1.320 Z3.169 U14.019 F600
G1 X32.548 Y1.371 Z3.171 U14.833 F600
G1 X34.404 Y1.420 Z3.173 U15.646 F600
G1 X36.260 Y1.470 Z3.176 U16.460 F600
G1 X38.116 Y1.519 Z3.178 U17.274 F600
G1 X39.972 Y1.569 Z3.180 U18.087 F600
G1 X41.827 Y1.619 Z3.182 U18.901 F600
G1 X43.683 Y1.669 Z3.184 U19.715 F600
G1 X45.539 Y1.719 Z3.186 U20.528 F600
G1 X47.395 Y1.770 Z3.188 U21.342 F600
G1 X49.251 Y1.820 Z3.190 U22.156 F600
G1 X51.106 Y1.870 Z3.192 U22.969 F600
G1 X52.962 Y1.920 Z3.195 U23.783 F600
G1 X54.818 Y1.970 Z3.197 U24.597 F600
G1 X56.674 Y2.020 Z3.199 U25.411 F600
G1 X58.529 Y2.070 Z3.201 U26.224 F600
G1 X60.385 Y2.120 Z3.203 U27.038 F600
G1 X62.241 Y2.170 Z3.205 U27.852 F600
G1 X64.097 Y2.220 Z3.207 U28.665 F600
G1 X65.953 Y2.270 Z3.209 U29.479 F600
G1 X67.808 Y2.320 Z3.211 U30.293 F600
G1 X69.664 Y2.370 Z3.214 U31.106 F600
G1 X71.520 Y2.420 Z3.216 U31.920 F600
G1 X73.376 Y2.470 Z3.218 U32.734 F600
G1 X75.232 Y2.521 Z3.220 U33.547 F600
G1 X77.087 Y2.571 Z3.222 U34.361 F600
G1 X78.943 Y2.621 Z3.224 U35.175 F600
G1 X80.799 Y2.671 Z3.226 U35.988 F600
G1 X82.655 Y2.721 Z3.228 U36.802 F600
G1 X84.511 Y2.771 Z3.231 U37.616 F600
G1 X86.366 Y2.821 Z3.233 U38.429 F600
G1 X88.222 Y2.871 Z3.235 U39.243 F600
G1 X90.078 Y2.921 Z3.237 U40.057 F600
G1 X91.006 Y2.946 Z3.238 U40.464 F600
G1 X91.934 Y2.971 Z3.239 U40.871 F600
G1 X92.862 Y2.996 Z3.240 U41.277 F600
G1 X93.789 Y3.062 Z3.243 U41.684 F600
G1 X93.789 Y3.062 Z3.243 U41.684 F600
G1 X92.862 Y3.264 Z3.251 U41.277 F600
G1 X91.934 Y3.425 Z3.258 U40.871 F600
G1 X91.006 Y3.586 Z3.265 U40.464 F600
G1 X90.078 Y3.745 Z3.272 U40.057 F600
G1 X88.222 Y4.059 Z3.285 U39.243 F600
G1 X86.366 Y4.365 Z3.298 U38.429 F600
G1 X84.511 Y4.664 Z3.310 U37.616 F600
G1 X82.655 Y4.956 Z3.323 U36.802 F600
G1 X80.799 Y5.241 Z3.335 U35.988 F600
G1 X78.943 Y5.519 Z3.347 U35.175 F600
G1 X77.087 Y5.790 Z3.358 U34.361 F600
G1 X75.232 Y6.053 Z3.369 U33.547 F600
G1 X73.376 Y6.308 Z3.380 U32.734 F600
G1 X71.520 Y6.555 Z3.390 U31.920 F600
G1 X69.664 Y6.794 Z3.400 U31.106 F600
G1 X67.808 Y7.026 Z3.410 U30.293 F600
G1 X65.953 Y7.249 Z3.420 U29.479 F600
G1 X64.097 Y7.464 Z3.429 U28.665 F600
G1 X62.241 Y7.669 Z3.437 U27.852 F600
G1 X60.385 Y7.865 Z3.446 U27.038 F600
G1 X58.529 Y8.051 Z3.454 U26.224 F600
G1 X56.674 Y8.225 Z3.461 U25.411 F600
G1 X54.818 Y8.388 Z3.468 U24.597 F600
G1 X52.962 Y8.538 Z3.474 U23.783 F600
G1 X51.106 Y8.676 Z3.480 U22.969 F600
G1 X49.251 Y8.801 Z3.485 U22.156 F600
G1 X47.395 Y8.915 Z3.490 U21.342 F600
G1 X45.539 Y9.016 Z3.494 U20.528 F600
G1 X43.683 Y9.103 Z3.498 U19.715 F600
G1 X41.827 Y9.176 Z3.501 U18.901 F600
G1 X39.972 Y9.234 Z3.504 U18.087 F600
G1 X38.116 Y9.275 Z3.505 U17.274 F600
G1 X36.260 Y9.299 Z3.506 U16.460 F600
G1 X34.404 Y9.307 Z3.507 U15.646 F600
G1 X32.548 Y9.298 Z3.506 U14.833 F600
G1 X30.693 Y9.276 Z3.505 U14.019 F600
G1 X28.837 Y9.242 Z3.504 U13.205 F600
G1 X26.981 Y9.196 Z3.502 U12.392 F600
G1 X25.125 Y9.133 Z3.499 U11.578 F600
G1 X23.269 Y9.048 Z3.496 U10.764 F600
G1 X21.414 Y8.933 Z3.491 U9.951 F600
G1 X19.558 Y8.781 Z3.484 U9.137 F600
G1 X17.702 Y8.587 Z3.476 U8.323 F600
G1 X15.846 Y8.349 Z3.466 U7.509 F600
G1 X13.991 Y8.067 Z3.454 U6.696 F600
G1 X12.135 Y7.739 Z3.440 U5.882 F600
G1 X10.279 Y7.355 Z3.424 U5.068 F600
G1 X8.423 Y6.908 Z3.405 U4.255 F600
G1 X6.567 Y6.385 Z3.383 U3.441 F600
G1 X5.639 Y6.079 Z3.370 U3.034 F600
G1 X4.712 Y5.729 Z3.355 U2.627 F600
G1 X3.784 Y5.312 Z3.338 U2.221 F600
G1 X2.856 Y4.791 Z3.316 U1.814 F600
G1 X2.113 Y4.279 Z3.294 U1.488 F600
G1 X1.742 Y3.998 Z3.282 U1.325 F600
G1 X1.371 Y3.670 Z3.268 U1.163 F600
G1 X1.186 Y3.457 Z3.260 U1.081 F600
G1 X1.093 Y3.316 Z3.254 U1.041 F600
G1 X1.046 Y3.221 Z3.250 U1.020 F600
G1 X1.000 Y3.062 Z3.243 U1.000 F600

; --- Safe Outer Perimeter Transition ---
G1 Y70 U70 F1000 ; Lift up
G1 X163.78947368421052 Z215.89473684210526 F1200 ; Move to outer safety margin
G1 X143.789 Z195.895 F1200 ; Align with second wing start
G1 Y7.245 U7.064 F800 ; Descent
G1 X144.717 Y7.042 Z7.055 U196.302 F600
G1 X145.645 Y6.881 Z7.048 U196.708 F600
G1 X146.573 Y6.721 Z7.042 U197.115 F600
G1 X147.501 Y6.561 Z7.035 U197.522 F600
G1 X149.357 Y6.248 Z7.022 U198.336 F600
G1 X151.213 Y5.942 Z7.009 U199.149 F600
G1 X153.068 Y5.643 Z6.996 U199.963 F600
G1 X154.924 Y5.351 Z6.984 U200.777 F600
G1 X156.780 Y5.065 Z6.972 U201.591 F600
G1 X158.636 Y4.787 Z6.960 U202.404 F600
G1 X160.492 Y4.517 Z6.948 U203.218 F600
G1 X162.347 Y4.254 Z6.937 U204.032 F600
G1 X164.203 Y3.999 Z6.927 U204.845 F600
G1 X166.059 Y3.751 Z6.916 U205.659 F600
G1 X167.915 Y3.512 Z6.906 U206.473 F600
G1 X169.771 Y3.281 Z6.896 U207.286 F600
G1 X171.626 Y3.058 Z6.887 U208.100 F600
G1 X173.482 Y2.843 Z6.878 U208.914 F600
G1 X175.338 Y2.637 Z6.869 U209.727 F600
G1 X177.194 Y2.441 Z6.861 U210.541 F600
G1 X179.049 Y2.255 Z6.853 U211.355 F600
G1 X180.905 Y2.081 Z6.846 U212.168 F600
G1 X182.761 Y1.919 Z6.839 U212.982 F600
G1 X184.617 Y1.769 Z6.832 U213.796 F600
G1 X186.473 Y1.631 Z6.827 U214.609 F600
G1 X188.328 Y1.505 Z6.821 U215.423 F600
G1 X190.184 Y1.392 Z6.816 U216.237 F600
G1 X192.040 Y1.291 Z6.812 U217.051 F600
G1 X193.896 Y1.203 Z6.809 U217.864 F600
G1 X195.752 Y1.130 Z6.805 U218.678 F600
G1 X197.607 Y1.072 Z6.803 U219.492 F600
G1 X199.463 Y1.031 Z6.801 U220.305 F600
G1 X201.319 Y1.007 Z6.800 U221.119 F600
G1 X203.175 Y1.000 Z6.800 U221.933 F600
G1 X205.031 Y1.008 Z6.800 U222.746 F600
G1 X206.886 Y1.030 Z6.801 U223.560 F600
G1 X208.742 Y1.064 Z6.803 U224.374 F600
G1 X210.598 Y1.111 Z6.805 U225.187 F600
G1 X212.454 Y1.173 Z6.807 U226.001 F600
G1 X214.309 Y1.259 Z6.811 U226.815 F600
G1 X216.165 Y1.374 Z6.816 U227.628 F600
G1 X218.021 Y1.525 Z6.822 U228.442 F600
G1 X219.877 Y1.720 Z6.830 U229.256 F600
G1 X221.733 Y1.958 Z6.840 U230.069 F600
G1 X223.588 Y2.240 Z6.852 U230.883 F600
G1 X225.444 Y2.568 Z6.866 U231.697 F600
G1 X227.300 Y2.951 Z6.882 U232.511 F600
G1 X229.156 Y3.399 Z6.901 U233.324 F600
G1 X231.012 Y3.922 Z6.923 U234.138 F600
G1 X231.939 Y4.227 Z6.936 U234.545 F600
G1 X232.867 Y4.578 Z6.951 U234.952 F600
G1 X233.795 Y4.994 Z6.969 U235.358 F600
G1 X234.723 Y5.515 Z6.991 U235.765 F600
G1 X235.465 Y6.028 Z7.012 U236.091 F600
G1 X235.837 Y6.309 Z7.024 U236.253 F600
G1 X236.208 Y6.636 Z7.038 U236.416 F600
G1 X236.393 Y6.849 Z7.047 U236.498 F600
G1 X236.486 Y6.991 Z7.053 U236.538 F600
G1 X236.533 Y7.085 Z7.057 U236.559 F600
G1 X236.579 Y7.245 Z7.064 U236.579 F600
G1 X236.533 Y7.563 Z7.077 U236.559 F600
G1 X236.486 Y7.650 Z7.081 U236.538 F600
G1 X236.393 Y7.777 Z7.086 U236.498 F600
G1 X236.208 Y7.961 Z7.094 U236.416 F600
G1 X235.837 Y8.218 Z7.105 U236.253 F600
G1 X235.465 Y8.401 Z7.113 U236.091 F600
G1 X234.723 Y8.626 Z7.122 U235.765 F600
G1 X233.795 Y8.785 Z7.129 U235.358 F600
G1 X232.867 Y8.916 Z7.134 U234.952 F600
G1 X231.939 Y9.020 Z7.139 U234.545 F600
G1 X231.012 Y9.093 Z7.142 U234.138 F600
G1 X229.156 Y9.184 Z7.146 U233.324 F600
G1 X227.300 Y9.247 Z7.148 U232.511 F600
G1 X225.444 Y9.287 Z7.150 U231.697 F600
G1 X223.588 Y9.306 Z7.151 U230.883 F600
G1 X221.733 Y9.307 Z7.151 U230.069 F600
G1 X219.877 Y9.293 Z7.150 U229.256 F600
G1 X218.021 Y9.266 Z7.149 U228.442 F600
G1 X216.165 Y9.231 Z7.148 U227.628 F600
G1 X214.309 Y9.188 Z7.146 U226.815 F600
G1 X212.454 Y9.140 Z7.144 U226.001 F600
G1 X210.598 Y9.089 Z7.142 U225.187 F600
G1 X208.742 Y9.038 Z7.139 U224.374 F600
G1 X206.886 Y8.986 Z7.137 U223.560 F600
G1 X205.031 Y8.936 Z7.135 U222.746 F600
G1 X203.175 Y8.886 Z7.133 U221.933 F600
G1 X201.319 Y8.837 Z7.131 U221.119 F600
G1 X199.463 Y8.787 Z7.129 U220.305 F600
G1 X197.607 Y8.737 Z7.127 U219.492 F600
G1 X195.752 Y8.687 Z7.125 U218.678 F600
G1 X193.896 Y8.637 Z7.123 U217.864 F600
G1 X192.040 Y8.587 Z7.120 U217.051 F600
G1 X190.184 Y8.537 Z7.118 U216.237 F600
G1 X188.328 Y8.487 Z7.116 U215.423 F600
G1 X186.473 Y8.437 Z7.114 U214.609 F600
G1 X184.617 Y8.387 Z7.112 U213.796 F600
G1 X182.761 Y8.337 Z7.110 U212.982 F600
G1 X180.905 Y8.287 Z7.108 U212.168 F600
G1 X179.049 Y8.237 Z7.106 U211.355 F600
G1 X177.194 Y8.187 Z7.104 U210.541 F600
G1 X175.338 Y8.136 Z7.101 U209.727 F600
G1 X173.482 Y8.086 Z7.099 U208.914 F600
G1 X171.626 Y8.036 Z7.097 U208.100 F600
G1 X169.771 Y7.986 Z7.095 U207.286 F600
G1 X167.915 Y7.936 Z7.093 U206.473 F600
G1 X166.059 Y7.886 Z7.091 U205.659 F600
G1 X164.203 Y7.836 Z7.089 U204.845 F600
G1 X162.347 Y7.786 Z7.087 U204.032 F600
G1 X160.492 Y7.736 Z7.084 U203.218 F600
G1 X158.636 Y7.686 Z7.082 U202.404 F600
G1 X156.780 Y7.636 Z7.080 U201.591 F600
G1 X154.924 Y7.586 Z7.078 U200.777 F600
G1 X153.068 Y7.536 Z7.076 U199.963 F600
G1 X151.213 Y7.486 Z7.074 U199.149 F600
G1 X149.357 Y7.436 Z7.072 U198.336 F600
G1 X147.501 Y7.386 Z7.070 U197.522 F600
G1 X146.573 Y7.361 Z7.069 U197.115 F600
G1 X145.645 Y7.336 Z7.068 U196.708 F600
G1 X144.717 Y7.310 Z7.067 U196.302 F600
G1 X143.789 Y7.245 Z7.064 U195.895 F600
G1 X143.789 Y7.245 Z7.064 U195.895 F600

; --- Final Reset to Home ---
G1 Y70 U70 F1000 ; Final Lift
G1 X0 Y0 U0 Z0 F1200 ; Return Home